SL-14 R/B               
1 18749U 88001B   21278.49938078  .00000136  00000-0  13661-4 0  9995
2 18749  82.5108 272.4321 0019006 168.0387 342.5200 14.83277153802282
COSMOS 1933             
1 18958U 88020A   21278.40610811  .00000376  00000-0  25150-4 0  9993
2 18958  82.5328  26.8619 0010745 342.1559  17.9288 15.04019784806467
SL-3 R/B                
1 19046U 88032B   21278.52291379 -.00000037  00000-0  16702-5 0  9991
2 19046  97.3882 284.0101 0038165  30.0457 330.2948 15.03023931808313
SL-16 R/B               
1 19120U 88039B   21278.30896232 -.00000033  00000-0  74306-5 0  9996
2 19120  71.0122 245.1178 0024100 296.4429  63.4223 14.19224483729027
COSMOS 1953             
1 19210U 88050A   21278.46151199  .00000366  00000-0  22837-4 0  9991
2 19210  82.5148 308.6163 0011351 297.5567  62.4507 15.06401996793163
SL-8 R/B                
1 19257U 88053B   21278.57285506  .00000034  00000-0  19888-4 0  9991
2 19257  74.0494 207.3200 0019257  67.5381 104.9704 14.37531749744275
COSMOS 1975             
1 19573U 88093A   21278.45055242  .00001341  00000-0  91655-4 0  9999
2 19573  82.5173 263.9509 0013771 349.1618  10.9310 15.05302354774918
SL-14 R/B               
1 19574U 88093B   21278.33909131  .00000141  00000-0  14252-4 0  9997
2 19574  82.5290 115.9773 0021042 340.0064 193.2271 14.83388347761269
SL-16 R/B               
1 19650U 88102B   21278.41115412  .00000243  00000-0  14765-3 0  9994
2 19650  70.9997 311.1639 0016156 306.0976  53.8651 14.15811388698100
INTERCOSMOS 24          
1 20261U 89080A   21278.43907648  .00000191  00000-0  47547-4 0  9999
2 20261  82.5991  72.8765 1203287  71.7574 301.0531 12.56215402463639
SL-14 R/B               
1 20262U 89080C   21278.29085976  .00000087  00000-0  26235-4 0  9990
2 20262  82.5912 129.7836 1235853 274.4481  71.6765 12.48984128458268
DELTA 2 R/B(1)          
1 20303U 89085B   21278.38362373  .00004626  00000-0  14001-3 0  9990
2 20303  35.6421 261.7724 0087510  86.7608 274.3128 15.30025094741318
DELTA 1 R/B             
1 20323U 89089B   21278.44991566  .00000114  00000-0  38511-4 0  9996
2 20323  97.1173 355.5996 0071864 175.7485 184.4337 14.48422143661629
ARIANE 40 R/B           
1 20443U 90005H   21278.15716831  .00000040  00000-0  27815-4 0  9990
2 20443  98.5183 343.5839 0010516  14.5223 345.6265 14.38145771660345
DELTA 2 R/B(1)          
1 20453U 90008B   21278.45887139  .00003413  00000-0  18575-3 0  9996
2 20453  35.6265 332.6237 0275983 313.9114  43.9118 14.87063537681909
COSMOS 2058             
1 20465U 90010A   21278.20089806  .00000693  00000-0  55869-4 0  9995
2 20465  82.4918 176.4305 0016578  44.5554 315.6998 14.98297005699405
SL-14 R/B               
1 20466U 90010B   21278.45194735  .00000131  00000-0  13699-4 0  9993
2 20466  82.5051 342.2359 0019645 213.4628 146.5346 14.81440823689052
SL-14 R/B               
1 20511U 90018B   21278.47210492  .00000130  00000-0  14021-4 0  9992
2 20511  82.5198 290.7157 0017519   5.2413 108.2919 14.80094940683379
HST                     
1 20580U 90037B   21278.44376608  .00001008  00000-0  49892-4 0  9997
2 20580  28.4704  57.2452 0002659 162.9539 241.6824 15.09763443527636
SL-16 R/B               
1 20625U 90046B   21278.45932419  .00000112  00000-0  82823-4 0  9992
2 20625  70.9967  91.1652 0016210 243.8971 116.0484 14.14669781619796
COSMOS 2084             
1 20663U 90055A   21278.44563225  .00000186  00000-0  35088-4 0  9990
2 20663  62.7956  21.9355 0086549  21.5922 338.8785 14.92321489694231
SL-6 R/B(2)             
1 20666U 90055D   21278.41902591  .00000287  00000-0  42718-4 0  9993
2 20666  62.7838 297.2398 0111089  46.7865 314.2440 14.92571855696187
SL-8 R/B                
1 20775U 90078B   21278.26635734  .00003548  00000-0  16871-3 0  9997
2 20775  82.9298 194.4893 0565475 161.5145 200.7551 14.36463943573855
SL-8 R/B                
1 21088U 91006B   21278.48185396  .00000137  00000-0  12310-3 0  9990
2 21088  82.9386 292.0354 0021347 239.2978 230.3715 13.77181207541591
OKEAN-3                 
1 21397U 91039A   21278.41280575  .00000481  00000-0  43447-4 0  9995
2 21397  82.5191  85.1519 0018316  24.4753 335.7333 14.93172605623111
COSMOS 2151             
1 21422U 91042A   21278.21683604  .00000382  00000-0  34808-4 0  9997
2 21422  82.5035 190.8841 0015759  86.7648 273.5375 14.92309159621614
SL-14 R/B               
1 21423U 91042B   21278.40851044  .00000127  00000-0  13677-4 0  9992
2 21423  82.4908 292.9859 0018581 139.5302 220.7297 14.79843813613901
ERS-1                   
1 21574U 91050A   21278.44911283  .00000064  00000-0  36074-4 0  9990
2 21574  98.6604 239.7016 0032282 316.9396  42.9266 14.37818483583378
ARIANE 40 R/B           
1 21610U 91050F   21278.43387558  .00000061  00000-0  32654-4 0  9999
2 21610  98.4139 347.5022 0002030 272.2133  98.1804 14.40967361586105
INTERCOSMOS 25          
1 21819U 91086A   21278.25671756  .00001781  00000-0  35902-3 0  9993
2 21819  82.5936 201.7391 1515766 340.1765  14.5972 12.05378375301481
SL-8 R/B                
1 21876U 92008B   21278.39541551  .00000017  00000-0  19807-5 0  9994
2 21876  82.9308  29.4058 0033992 329.8665  92.0430 13.75681753487170
SL-8 R/B                
1 21938U 92020B   21278.47725498 -.00000064  00000-0 -83015-4 0  9995
2 21938  82.9258 273.8836 0030377 126.6298 343.0790 13.75287610478960
COSMOS 2219             
1 22219U 92076A   21278.36942676 -.00000247  00000-0 -10592-3 0  9998
2 22219  71.0589 155.6063 0017088 156.6800 203.5101 14.13663983489922
SL-16 R/B               
1 22220U 92076B   21278.41893425 -.00000037  00000-0  53039-5 0  9994
2 22220  71.0023 351.7443 0011582  29.4491  46.3624 14.16473680492938
COSMOS 2221             
1 22236U 92080A   21278.37937761  .00000423  00000-0  43198-4 0  9995
2 22236  82.5115  14.8378 0016651 179.9490 180.1732 14.88112304539896
SL-16 R/B               
1 22285U 92093B   21278.40689307  .00000236  00000-0  14614-3 0  9999
2 22285  71.0215 156.0942 0006380 258.1524 101.8883 14.15067858484480
COSMOS 2228             
1 22286U 92094A   21278.39564780  .00000400  00000-0  40403-4 0  9995
2 22286  82.5208 331.6363 0019729 305.8415  54.0969 14.88336270535082
SL-16 R/B               
1 22566U 93016B   21278.46134056 -.00000274  00000-0 -11684-3 0  9997
2 22566  71.0102   8.6571 0012787 264.3953  95.5712 14.14974902473529
COSMOS 2242             
1 22626U 93024A   21278.28612105  .00000375  00000-0  37974-4 0  9990
2 22626  82.5252   0.0612 0017547 306.7294  53.2311 14.88185404539452
SL-16 R/B               
1 22803U 93059B   21278.47686356  .00000228  00000-0  13771-3 0  9990
2 22803  70.9906 178.1808 0016308 159.5813 200.5966 14.16844604450589
ARIANE 40 R/B           
1 22830U 93061H   21278.40024777  .00000031  00000-0  28637-4 0  9999
2 22830  98.7021 336.2670 0011032  15.1448 345.0063 14.31492481462775
COSMOS 2278             
1 23087U 94023A   21278.48639013  .00000168  00000-0  11374-3 0  9996
2 23087  71.0547 314.7334 0010208 325.0437  35.0014 14.13841553416331
SL-16 R/B               
1 23088U 94023B   21278.27711694 -.00000293  00000-0 -12750-3 0  9990
2 23088  70.9994 224.4875 0005535 249.5115 110.5413 14.14695942417460
SL-16 R/B               
1 23343U 94074B   21278.18382948  .00000093  00000-0  20478-4 0  9999
2 23343  97.9340 331.0727 0008125  65.9937   0.9966 14.76904588448487
SL-16 R/B               
1 23405U 94077B   21278.39012286  .00000122  00000-0  87209-4 0  9997
2 23405  70.9827 151.8327 0000429 137.9317 222.1839 14.15246866387538
ERS-2                   
1 23560U 95021A   21278.36764272  .00002207  00000-0  94075-4 0  9990
2 23560  98.5335 143.7259 0003613  14.4932 345.6405 15.24283240414432
ARIANE 40+ R/B          
1 23561U 95021B   21278.40026633  .00000076  00000-0  40185-4 0  9993
2 23561  98.6630 329.2055 0005843 286.7002  83.9381 14.38049123386837
SL-16 R/B               
1 23705U 95058B   21278.45120583 -.00000123  00000-0 -38908-4 0  9992
2 23705  71.0241 332.3372 0010441  55.9325 304.2787 14.15157052339171
SL-16 R/B               
1 24298U 96051B   21278.42605754 -.00000139  00000-0 -48824-4 0  9994
2 24298  70.8259 348.9601 0015263 356.8397   3.2624 14.12413603293429
ORBVIEW 2 (SEASTAR)     
1 24883U 97037A   21278.35314710  .00000073  00000-0  42555-4 0  9990
2 24883  98.6544  36.3523 0003162 128.8938 231.2529 14.33638404276753
SL-16 R/B               
1 25400U 98043G   21278.42362524 -.00000011  00000-0  13618-4 0  9999
2 25400  98.6450 212.6751 0010598  36.5547 323.6354 14.25483843208684
SL-16 R/B               
1 25407U 98045B   21278.46750527 -.00000173  00000-0 -63595-4 0  9995
2 25407  71.0134 339.2787 0009128 316.1240  43.9157 14.15844642198312
ISS (ZARYA)             
1 25544U 98067A   21278.69244762 -.00006855  00000-0 -11665-3 0  9998
2 25544  51.6434 156.3290 0004272  54.8271 359.0634 15.48922109305721
CZ-4B R/B               
1 25732U 99025C   21278.10129562  .00000005  00000-0  24485-4 0  9992
2 25732  98.8926 314.7501 0036399 297.5887 120.5530 14.17700662159072
OKEAN-O                 
1 25860U 99039A   21278.36521811  .00000119  00000-0  24583-4 0  9995
2 25860  98.1746 310.5691 0001690 107.9462 252.1931 14.76765757195607
SL-16 R/B               
1 25861U 99039B   21278.30866833  .00000105  00000-0  21777-4 0  9993
2 25861  98.2019 295.7933 0016892  74.2693 296.6911 14.78667598197796
DELTA 2 R/B             
1 25876U 99041E   21278.34163599  .00000246  00000-0  80957-4 0  9996
2 25876  51.7669 235.3622 0530640 289.3211  65.1079 14.04648731135365
HELIOS 1B               
1 25977U 99064A   21278.43904240  .00000128  00000-0  23077-4 0  9998
2 25977  98.3227  97.3375 0000340 167.0876 193.0345 14.82588417445498
TERRA                   
1 25994U 99068A   21278.44660063  .00000115  00000-0  35497-4 0  9999
2 25994  98.1674 350.8081 0001343  91.5467 359.9152 14.57133916159362
